33064,ORBCOMM FM37,2008,97.48,-1.0,-,48.44,Inactive,0,LEO,Russia,ORBCOMM,Unknown,Unknown,Unknown,1 33064U 08031E   24242.42552729  .00004820  00000+0  70158-3 0  9995,2 33064  48.4396 288.3476 0005740 214.8019 158.8094 14.77220551870870,14.77220551,0.000574,LEO
33065,ORBCOMM FM40,2008,97.38,-1.0,-,48.44,Inactive,0,LEO,Russia,ORBCOMM,Unknown,Unknown,Unknown,1 33065U 08031F   24242.38375410  .00005815  00000+0  81108-3 0  9993,2 33065  48.4415 276.7763 0006973 223.5583 149.9273 14.78730360870926,14.7873036,0.0006973,LEO
37840,VESSELSAT 1,2011,102.04,-1.0,-,19.96,Inactive,0,LEO,India,Luxembourg,Unknown,Unknown,Unknown,1 37840U 11058C   24243.15243363  .00000566  00000+0  16436-3 0  9998,2 37840  19.9628  54.7619 0013583 225.4537 134.4758 14.11200891665375,14.11200891,0.0013583,LEO
40088,ORBCOMM FM106,2014,98.12,-1.0,-,47.06,Inactive,0,LEO,USA,ORBCOMM,Unknown,Unknown,Unknown,1 40088U 14040C   24243.47900185  .00003408  00000+0  62490-3 0  9996,2 40088  47.0597 154.0304 0017462 157.9159 202.2487 14.67589925540952,14.67589925,0.0017462,LEO
40089,ORBCOMM FM111,2014,97.12,-1.0,-,47.0,Inactive,0,LEO,USA,ORBCOMM,Unknown,Unknown,Unknown,1 40089U 14040D   24242.17806957  .00008103  00000+0  10073-2 0  9991,2 40089  47.0044  48.0453 0033663 237.5518 122.2121 14.82720011546831,14.82720011,0.0033663,LEO
40090,ORBCOMM FM104,2014,98.94,-1.0,-,47.01,Inactive,0,LEO,USA,ORBCOMM,Unknown,Unknown,Unknown,1 40090U 14040E   24243.55768168  .00002142  00000+0  52501-3 0  9997,2 40090  47.0062 339.0513 0017549 314.4945  45.4505 14.55481127538360,14.55481127,0.0017549,LEO
40086,ORBCOMM FM109,2014,98.83,172.0,+,47.0,Active,1,LEO,USA,ORBCOMM,Commercial,Communications,Falcon,1 40086U 14040A   24242.47546070  .00002805  00000+0  65412-3 0  9999,2 40086  47.0035 312.9789 0001157  18.5400 341.5527 14.57047431538504,14.57047431,0.0001157,LEO
40087,ORBCOMM FM107,2014,98.83,172.0,+,47.01,Active,1,LEO,USA,ORBCOMM,Commercial,Communications,Falcon,1 40087U 14040B   24242.50948692  .00002023  00000+0  48240-3 0  9992,2 40087  47.0063 313.7993 0001408 332.8368  27.2444 14.57019370538581,14.5701937,0.0001408,LEO
