<?xml version="1.0" encoding="UTF-8"?>
<ndm xmlns:xsi="http://www.w3.org/2001/XMLSchema-instance" xsi:noNamespaceSchemaLocation="https://sanaregistry.org/r/ndmxml_unqualified/ndmxml-2.0.0-master-2.0.xsd">
<omm id="CCSDS_OMM_VERS" version="2.0">
<header><CREATION_DATE/><ORIGINATOR/></header><body><segment><metadata><OBJECT_NAME>ORBCOMM FM37</OBJECT_NAME><OBJECT_ID>2008-031E</OBJECT_ID><CENTER_NAME>EARTH</CENTER_NAME><REF_FRAME>TEME</REF_FRAME><TIME_SYSTEM>UTC</TIME_SYSTEM><MEAN_ELEMENT_THEORY>SGP4</MEAN_ELEMENT_THEORY></metadata><data><meanElements><EPOCH>2024-08-29T10:12:45.557856</EPOCH><MEAN_MOTION>14.77220551</MEAN_MOTION><ECCENTRICITY>.000574</ECCENTRICITY><INCLINATION>48.4396</INCLINATION><RA_OF_ASC_NODE>288.3476</RA_OF_ASC_NODE><ARG_OF_PERICENTER>214.8019</ARG_OF_PERICENTER><MEAN_ANOMALY>158.8094</MEAN_ANOMALY></meanElements><tleParameters><EPHEMERIS_TYPE>0</EPHEMERIS_TYPE><CLASSIFICATION_TYPE>U</CLASSIFICATION_TYPE><NORAD_CAT_ID>33064</NORAD_CAT_ID><ELEMENT_SET_NO>999</ELEMENT_SET_NO><REV_AT_EPOCH>87087</REV_AT_EPOCH><BSTAR>.70158E-3</BSTAR><MEAN_MOTION_DOT>.482E-4</MEAN_MOTION_DOT><MEAN_MOTION_DDOT>0</MEAN_MOTION_DDOT></tleParameters></data></segment></body></omm>
<omm id="CCSDS_OMM_VERS" version="2.0">
<header><CREATION_DATE/><ORIGINATOR/></header><body><segment><metadata><OBJECT_NAME>ORBCOMM FM40</OBJECT_NAME><OBJECT_ID>2008-031F</OBJECT_ID><CENTER_NAME>EARTH</CENTER_NAME><REF_FRAME>TEME</REF_FRAME><TIME_SYSTEM>UTC</TIME_SYSTEM><MEAN_ELEMENT_THEORY>SGP4</MEAN_ELEMENT_THEORY></metadata><data><meanElements><EPOCH>2024-08-29T09:12:36.354240</EPOCH><MEAN_MOTION>14.78730360</MEAN_MOTION><ECCENTRICITY>.0006973</ECCENTRICITY><INCLINATION>48.4415</INCLINATION><RA_OF_ASC_NODE>276.7763</RA_OF_ASC_NODE><ARG_OF_PERICENTER>223.5583</ARG_OF_PERICENTER><MEAN_ANOMALY>149.9273</MEAN_ANOMALY></meanElements><tleParameters><EPHEMERIS_TYPE>0</EPHEMERIS_TYPE><CLASSIFICATION_TYPE>U</CLASSIFICATION_TYPE><NORAD_CAT_ID>33065</NORAD_CAT_ID><ELEMENT_SET_NO>999</ELEMENT_SET_NO><REV_AT_EPOCH>87092</REV_AT_EPOCH><BSTAR>.81108E-3</BSTAR><MEAN_MOTION_DOT>.5815E-4</MEAN_MOTION_DOT><MEAN_MOTION_DDOT>0</MEAN_MOTION_DDOT></tleParameters></data></segment></body></omm>
<omm id="CCSDS_OMM_VERS" version="2.0">
<header><CREATION_DATE/><ORIGINATOR/></header><body><segment><metadata><OBJECT_NAME>VESSELSAT 1</OBJECT_NAME><OBJECT_ID>2011-058C</OBJECT_ID><CENTER_NAME>EARTH</CENTER_NAME><REF_FRAME>TEME</REF_FRAME><TIME_SYSTEM>UTC</TIME_SYSTEM><MEAN_ELEMENT_THEORY>SGP4</MEAN_ELEMENT_THEORY></metadata><data><meanElements><EPOCH>2024-08-30T03:39:30.265632</EPOCH><MEAN_MOTION>14.11200891</MEAN_MOTION><ECCENTRICITY>.0013583</ECCENTRICITY><INCLINATION>19.9628</INCLINATION><RA_OF_ASC_NODE>54.7619</RA_OF_ASC_NODE><ARG_OF_PERICENTER>225.4537</ARG_OF_PERICENTER><MEAN_ANOMALY>134.4758</MEAN_ANOMALY></meanElements><tleParameters><EPHEMERIS_TYPE>0</EPHEMERIS_TYPE><CLASSIFICATION_TYPE>U</CLASSIFICATION_TYPE><NORAD_CAT_ID>37840</NORAD_CAT_ID><ELEMENT_SET_NO>999</ELEMENT_SET_NO><REV_AT_EPOCH>66537</REV_AT_EPOCH><BSTAR>.16436E-3</BSTAR><MEAN_MOTION_DOT>.566E-5</MEAN_MOTION_DOT><MEAN_MOTION_DDOT>0</MEAN_MOTION_DDOT></tleParameters></data></segment></body></omm>
<omm id="CCSDS_OMM_VERS" version="2.0">
<header><CREATION_DATE/><ORIGINATOR/></header><body><segment><metadata><OBJECT_NAME>ORBCOMM FM109</OBJECT_NAME><OBJECT_ID>2014-040A</OBJECT_ID><CENTER_NAME>EARTH</CENTER_NAME><REF_FRAME>TEME</REF_FRAME><TIME_SYSTEM>UTC</TIME_SYSTEM><MEAN_ELEMENT_THEORY>SGP4</MEAN_ELEMENT_THEORY></metadata><data><meanElements><EPOCH>2024-08-29T11:24:39.804480</EPOCH><MEAN_MOTION>14.57047431</MEAN_MOTION><ECCENTRICITY>.0001157</ECCENTRICITY><INCLINATION>47.0035</INCLINATION><RA_OF_ASC_NODE>312.9789</RA_OF_ASC_NODE><ARG_OF_PERICENTER>18.5400</ARG_OF_PERICENTER><MEAN_ANOMALY>341.5527</MEAN_ANOMALY></meanElements><tleParameters><EPHEMERIS_TYPE>0</EPHEMERIS_TYPE><CLASSIFICATION_TYPE>U</CLASSIFICATION_TYPE><NORAD_CAT_ID>40086</NORAD_CAT_ID><ELEMENT_SET_NO>999</ELEMENT_SET_NO><REV_AT_EPOCH>53850</REV_AT_EPOCH><BSTAR>.65412E-3</BSTAR><MEAN_MOTION_DOT>.2805E-4</MEAN_MOTION_DOT><MEAN_MOTION_DDOT>0</MEAN_MOTION_DDOT></tleParameters></data></segment></body></omm>
<omm id="CCSDS_OMM_VERS" version="2.0">
<header><CREATION_DATE/><ORIGINATOR/></header><body><segment><metadata><OBJECT_NAME>ORBCOMM FM107</OBJECT_NAME><OBJECT_ID>2014-040B</OBJECT_ID><CENTER_NAME>EARTH</CENTER_NAME><REF_FRAME>TEME</REF_FRAME><TIME_SYSTEM>UTC</TIME_SYSTEM><MEAN_ELEMENT_THEORY>SGP4</MEAN_ELEMENT_THEORY></metadata><data><meanElements><EPOCH>2024-08-29T12:13:39.669888</EPOCH><MEAN_MOTION>14.57019370</MEAN_MOTION><ECCENTRICITY>.0001408</ECCENTRICITY><INCLINATION>47.0063</INCLINATION><RA_OF_ASC_NODE>313.7993</RA_OF_ASC_NODE><ARG_OF_PERICENTER>332.8368</ARG_OF_PERICENTER><MEAN_ANOMALY>27.2444</MEAN_ANOMALY></meanElements><tleParameters><EPHEMERIS_TYPE>0</EPHEMERIS_TYPE><CLASSIFICATION_TYPE>U</CLASSIFICATION_TYPE><NORAD_CAT_ID>40087</NORAD_CAT_ID><ELEMENT_SET_NO>999</ELEMENT_SET_NO><REV_AT_EPOCH>53858</REV_AT_EPOCH><BSTAR>.4824E-3</BSTAR><MEAN_MOTION_DOT>.2023E-4</MEAN_MOTION_DOT><MEAN_MOTION_DDOT>0</MEAN_MOTION_DDOT></tleParameters></data></segment></body></omm>
<omm id="CCSDS_OMM_VERS" version="2.0">
<header><CREATION_DATE/><ORIGINATOR/></header><body><segment><metadata><OBJECT_NAME>ORBCOMM FM106</OBJECT_NAME><OBJECT_ID>2014-040C</OBJECT_ID><CENTER_NAME>EARTH</CENTER_NAME><REF_FRAME>TEME</REF_FRAME><TIME_SYSTEM>UTC</TIME_SYSTEM><MEAN_ELEMENT_THEORY>SGP4</MEAN_ELEMENT_THEORY></metadata><data><meanElements><EPOCH>2024-08-30T11:29:45.759840</EPOCH><MEAN_MOTION>14.67589925</MEAN_MOTION><ECCENTRICITY>.0017462</ECCENTRICITY><INCLINATION>47.0597</INCLINATION><RA_OF_ASC_NODE>154.0304</RA_OF_ASC_NODE><ARG_OF_PERICENTER>157.9159</ARG_OF_PERICENTER><MEAN_ANOMALY>202.2487</MEAN_ANOMALY></meanElements><tleParameters><EPHEMERIS_TYPE>0</EPHEMERIS_TYPE><CLASSIFICATION_TYPE>U</CLASSIFICATION_TYPE><NORAD_CAT_ID>40088</NORAD_CAT_ID><ELEMENT_SET_NO>999</ELEMENT_SET_NO><REV_AT_EPOCH>54095</REV_AT_EPOCH><BSTAR>.6249E-3</BSTAR><MEAN_MOTION_DOT>.3408E-4</MEAN_MOTION_DOT><MEAN_MOTION_DDOT>0</MEAN_MOTION_DDOT></tleParameters></data></segment></body></omm>
<omm id="CCSDS_OMM_VERS" version="2.0">
<header><CREATION_DATE/><ORIGINATOR/></header><body><segment><metadata><OBJECT_NAME>ORBCOMM FM111</OBJECT_NAME><OBJECT_ID>2014-040D</OBJECT_ID><CENTER_NAME>EARTH</CENTER_NAME><REF_FRAME>TEME</REF_FRAME><TIME_SYSTEM>UTC</TIME_SYSTEM><MEAN_ELEMENT_THEORY>SGP4</MEAN_ELEMENT_THEORY></metadata><data><meanElements><EPOCH>2024-08-29T04:16:25.210848</EPOCH><MEAN_MOTION>14.82720011</MEAN_MOTION><ECCENTRICITY>.0033663</ECCENTRICITY><INCLINATION>47.0044</INCLINATION><RA_OF_ASC_NODE>48.0453</RA_OF_ASC_NODE><ARG_OF_PERICENTER>237.5518</ARG_OF_PERICENTER><MEAN_ANOMALY>122.2121</MEAN_ANOMALY></meanElements><tleParameters><EPHEMERIS_TYPE>0</EPHEMERIS_TYPE><CLASSIFICATION_TYPE>U</CLASSIFICATION_TYPE><NORAD_CAT_ID>40089</NORAD_CAT_ID><ELEMENT_SET_NO>999</ELEMENT_SET_NO><REV_AT_EPOCH>54683</REV_AT_EPOCH><BSTAR>.10073E-2</BSTAR><MEAN_MOTION_DOT>.8103E-4</MEAN_MOTION_DOT><MEAN_MOTION_DDOT>0</MEAN_MOTION_DDOT></tleParameters></data></segment></body></omm>
<omm id="CCSDS_OMM_VERS" version="2.0">
<header><CREATION_DATE/><ORIGINATOR/></header><body><segment><metadata><OBJECT_NAME>ORBCOMM FM104</OBJECT_NAME><OBJECT_ID>2014-040E</OBJECT_ID><CENTER_NAME>EARTH</CENTER_NAME><REF_FRAME>TEME</REF_FRAME><TIME_SYSTEM>UTC</TIME_SYSTEM><MEAN_ELEMENT_THEORY>SGP4</MEAN_ELEMENT_THEORY></metadata><data><meanElements><EPOCH>2024-08-30T13:23:03.697152</EPOCH><MEAN_MOTION>14.55481127</MEAN_MOTION><ECCENTRICITY>.0017549</ECCENTRICITY><INCLINATION>47.0062</INCLINATION><RA_OF_ASC_NODE>339.0513</RA_OF_ASC_NODE><ARG_OF_PERICENTER>314.4945</ARG_OF_PERICENTER><MEAN_ANOMALY>45.4505</MEAN_ANOMALY></meanElements><tleParameters><EPHEMERIS_TYPE>0</EPHEMERIS_TYPE><CLASSIFICATION_TYPE>U</CLASSIFICATION_TYPE><NORAD_CAT_ID>40090</NORAD_CAT_ID><ELEMENT_SET_NO>999</ELEMENT_SET_NO><REV_AT_EPOCH>53836</REV_AT_EPOCH><BSTAR>.52501E-3</BSTAR><MEAN_MOTION_DOT>.2142E-4</MEAN_MOTION_DOT><MEAN_MOTION_DDOT>0</MEAN_MOTION_DDOT></tleParameters></data></segment></body></omm>

</ndm>
